[{"OBJECT_NAME":"COSMOS 2456 (730)","OBJECT_ID":"2009-070A","EPOCH":"2026-04-04T07:35:35.337408","MEAN_MOTION":2.13103577,"ECCENTRICITY":0.00065131,"INCLINATION":64.9694,"RA_OF_ASC_NODE":73.4901,"ARG_OF_PERICENTER":311.2364,"MEAN_ANOMALY":153.5936,"EPHEMERIS_TYPE":0,"CLASSIFICATION_TYPE":"U","NORAD_CAT_ID":36111,"ELEMENT_SET_NO":999,"REV_AT_EPOCH":12685,"BSTAR":0,"MEAN_MOTION_DOT":-7.0e-8,"MEAN_MOTION_DDOT":0},{"OBJECT_NAME":"COSMOS 2457 (733)","OBJECT_ID":"2009-070B","EPOCH":"2026-04-04T00:14:51.575424","MEAN_MOTION":2.13100936,"ECCENTRICITY":0.00014904,"INCLINATION":64.9547,"RA_OF_ASC_NODE":73.3459,"ARG_OF_PERICENTER":193.6954,"MEAN_ANOMALY":164.4243,"EPHEMERIS_TYPE":0,"CLASSIFICATION_TYPE":"U","NORAD_CAT_ID":36112,"ELEMENT_SET_NO":999,"REV_AT_EPOCH":12684,"BSTAR":0,"MEAN_MOTION_DOT":-8.0e-8,"MEAN_MOTION_DDOT":0},{"OBJECT_NAME":"COSMOS 2460 (732)","OBJECT_ID":"2010-007C","EPOCH":"2026-04-04T05:59:38.658336","MEAN_MOTION":2.13106066,"ECCENTRICITY":0.00021813,"INCLINATION":65.4623,"RA_OF_ASC_NODE":316.9695,"ARG_OF_PERICENTER":49.5361,"MEAN_ANOMALY":133.5187,"EPHEMERIS_TYPE":0,"CLASSIFICATION_TYPE":"U","NORAD_CAT_ID":36402,"ELEMENT_SET_NO":999,"REV_AT_EPOCH":12515,"BSTAR":0,"MEAN_MOTION_DOT":-4.6e-7,"MEAN_MOTION_DDOT":0},{"OBJECT_NAME":"GPS BIIF-1  (PRN 25)","OBJECT_ID":"2010-022A","EPOCH":"2026-04-04T16:05:51.046944","MEAN_MOTION":2.00558864,"ECCENTRICITY":0.0126965,"INCLINATION":54.2821,"RA_OF_ASC_NODE":211.5226,"ARG_OF_PERICENTER":66.0315,"MEAN_ANOMALY":297.1445,"EPHEMERIS_TYPE":0,"CLASSIFICATION_TYPE":"U","NORAD_CAT_ID":36585,"ELEMENT_SET_NO":999,"REV_AT_EPOCH":11612,"BSTAR":0,"MEAN_MOTION_DOT":5.0e-8,"MEAN_MOTION_DDOT":0},{"OBJECT_NAME":"BEIDOU-2 IGSO-1 (C06)","OBJECT_ID":"2010-036A","EPOCH":"2026-03-27T15:19:55.702560","MEAN_MOTION":1.00295665,"ECCENTRICITY":0.00574619,"INCLINATION":54.2909,"RA_OF_ASC_NODE":163.6978,"ARG_OF_PERICENTER":222.7538,"MEAN_ANOMALY":133.1758,"EPHEMERIS_TYPE":0,"CLASSIFICATION_TYPE":"U","NORAD_CAT_ID":36828,"ELEMENT_SET_NO":999,"REV_AT_EPOCH":5727,"BSTAR":0,"MEAN_MOTION_DOT":-1.5e-6,"MEAN_MOTION_DDOT":0},{"OBJECT_NAME":"BEIDOU-2 G4 (C04)","OBJECT_ID":"2010-057A","EPOCH":"2026-04-04T20:23:32.428032","MEAN_MOTION":1.00271597,"ECCENTRICITY":0.00072644,"INCLINATION":3.4656,"RA_OF_ASC_NODE":69.3601,"ARG_OF_PERICENTER":215.4308,"MEAN_ANOMALY":14.2588,"EPHEMERIS_TYPE":0,"CLASSIFICATION_TYPE":"U","NORAD_CAT_ID":37210,"ELEMENT_SET_NO":999,"REV_AT_EPOCH":5655,"BSTAR":0,"MEAN_MOTION_DOT":-1.1e-6,"MEAN_MOTION_DDOT":0},{"OBJECT_NAME":"BEIDOU-2 IGSO-2 (C07)","OBJECT_ID":"2010-068A","EPOCH":"2026-03-27T10:45:38.648736","MEAN_MOTION":1.00251076,"ECCENTRICITY":0.00480708,"INCLINATION":47.6922,"RA_OF_ASC_NODE":272.8379,"ARG_OF_PERICENTER":212.2935,"MEAN_ANOMALY":326.6285,"EPHEMERIS_TYPE":0,"CLASSIFICATION_TYPE":"U","NORAD_CAT_ID":37256,"ELEMENT_SET_NO":999,"REV_AT_EPOCH":5597,"BSTAR":0,"MEAN_MOTION_DOT":-1.75e-6,"MEAN_MOTION_DDOT":0},{"OBJECT_NAME":"BEIDOU-2 IGSO-3 (C08)","OBJECT_ID":"2011-013A","EPOCH":"2026-04-04T18:26:31.166592","MEAN_MOTION":1.00286193,"ECCENTRICITY":0.00342859,"INCLINATION":62.3137,"RA_OF_ASC_NODE":40.8446,"ARG_OF_PERICENTER":189.4563,"MEAN_ANOMALY":347.0219,"EPHEMERIS_TYPE":0,"CLASSIFICATION_TYPE":"U","NORAD_CAT_ID":37384,"ELEMENT_SET_NO":999,"REV_AT_EPOCH":5492,"BSTAR":0,"MEAN_MOTION_DOT":-1.88e-6,"MEAN_MOTION_DDOT":0},{"OBJECT_NAME":"GSAT-8 (GAGAN/PRN 127)","OBJECT_ID":"2011-022A","EPOCH":"2026-04-04T21:36:15.310080","MEAN_MOTION":1.00271969,"ECCENTRICITY":0.00056572,"INCLINATION":1.9418,"RA_OF_ASC_NODE":82.7034,"ARG_OF_PERICENTER":224.7448,"MEAN_ANOMALY":264.8776,"EPHEMERIS_TYPE":0,"CLASSIFICATION_TYPE":"U","NORAD_CAT_ID":37605,"ELEMENT_SET_NO":999,"REV_AT_EPOCH":5248,"BSTAR":0,"MEAN_MOTION_DOT":8.6e-7,"MEAN_MOTION_DDOT":0},{"OBJECT_NAME":"BEIDOU-2 IGSO-4 (C09)","OBJECT_ID":"2011-038A","EPOCH":"2026-03-28T15:54:07.127136","MEAN_MOTION":1.00260433,"ECCENTRICITY":0.0156581,"INCLINATION":54.5871,"RA_OF_ASC_NODE":166.404,"ARG_OF_PERICENTER":231.4212,"MEAN_ANOMALY":120.2889,"EPHEMERIS_TYPE":0,"CLASSIFICATION_TYPE":"U","NORAD_CAT_ID":37763,"ELEMENT_SET_NO":999,"REV_AT_EPOCH":5383,"BSTAR":0,"MEAN_MOTION_DOT":-1.09e-6,"MEAN_MOTION_DDOT":0},{"OBJECT_NAME":"GSAT0101 (GALILEO-PFM)","OBJECT_ID":"2011-060A","EPOCH":"2026-04-03T22:31:49.917216","MEAN_MOTION":1.70475877,"ECCENTRICITY":0.00041002,"INCLINATION":57.0172,"RA_OF_ASC_NODE":343.7769,"ARG_OF_PERICENTER":17.7484,"MEAN_ANOMALY":342.3127,"EPHEMERIS_TYPE":0,"CLASSIFICATION_TYPE":"U","NORAD_CAT_ID":37846,"ELEMENT_SET_NO":999,"REV_AT_EPOCH":8985,"BSTAR":0,"MEAN_MOTION_DOT":-9.5e-7,"MEAN_MOTION_DDOT":0},{"OBJECT_NAME":"GSAT0102 (GALILEO-FM2)","OBJECT_ID":"2011-060B","EPOCH":"2026-04-04T03:50:30.890400","MEAN_MOTION":1.70475892,"ECCENTRICITY":0.00048118,"INCLINATION":57.0179,"RA_OF_ASC_NODE":343.7712,"ARG_OF_PERICENTER":9.1881,"MEAN_ANOMALY":172.2383,"EPHEMERIS_TYPE":0,"CLASSIFICATION_TYPE":"U","NORAD_CAT_ID":37847,"ELEMENT_SET_NO":999,"REV_AT_EPOCH":8986,"BSTAR":0,"MEAN_MOTION_DOT":-9.5e-7,"MEAN_MOTION_DDOT":0},{"OBJECT_NAME":"COSMOS 2476 (744)","OBJECT_ID":"2011-064A","EPOCH":"2026-04-03T14:17:38.126688","MEAN_MOTION":2.13103623,"ECCENTRICITY":0.0024793,"INCLINATION":65.2287,"RA_OF_ASC_NODE":75.3878,"ARG_OF_PERICENTER":242.3223,"MEAN_ANOMALY":297.8742,"EPHEMERIS_TYPE":0,"CLASSIFICATION_TYPE":"U","NORAD_CAT_ID":37867,"ELEMENT_SET_NO":999,"REV_AT_EPOCH":11217,"BSTAR":0,"MEAN_MOTION_DOT":-4.0e-8,"MEAN_MOTION_DDOT":0},{"OBJECT_NAME":"COSMOS 2477 (745)","OBJECT_ID":"2011-064B","EPOCH":"2026-04-02T10:29:18.592800","MEAN_MOTION":2.13102755,"ECCENTRICITY":0.00218835,"INCLINATION":65.2346,"RA_OF_ASC_NODE":75.5056,"ARG_OF_PERICENTER":243.9509,"MEAN_ANOMALY":308.0017,"EPHEMERIS_TYPE":0,"CLASSIFICATION_TYPE":"U","NORAD_CAT_ID":37868,"ELEMENT_SET_NO":999,"REV_AT_EPOCH":11214,"BSTAR":0,"MEAN_MOTION_DOT":-1.0e-8,"MEAN_MOTION_DDOT":0},{"OBJECT_NAME":"COSMOS 2475 (743)","OBJECT_ID":"2011-064C","EPOCH":"2026-04-02T11:31:01.404768","MEAN_MOTION":2.13101572,"ECCENTRICITY":0.00278306,"INCLINATION":65.2414,"RA_OF_ASC_NODE":75.5251,"ARG_OF_PERICENTER":255.4078,"MEAN_ANOMALY":284.8639,"EPHEMERIS_TYPE":0,"CLASSIFICATION_TYPE":"U","NORAD_CAT_ID":37869,"ELEMENT_SET_NO":999,"REV_AT_EPOCH":11215,"BSTAR":0,"MEAN_MOTION_DOT":-1.0e-8,"MEAN_MOTION_DDOT":0},{"OBJECT_NAME":"BEIDOU-2 IGSO-5 (C10)","OBJECT_ID":"2011-073A","EPOCH":"2026-04-03T23:17:21.772896","MEAN_MOTION":1.00265759,"ECCENTRICITY":0.01095393,"INCLINATION":47.8149,"RA_OF_ASC_NODE":272.4589,"ARG_OF_PERICENTER":220.8427,"MEAN_ANOMALY":142.8662,"EPHEMERIS_TYPE":0,"CLASSIFICATION_TYPE":"U","NORAD_CAT_ID":37948,"ELEMENT_SET_NO":999,"REV_AT_EPOCH":5239,"BSTAR":0,"MEAN_MOTION_DOT":-1.74e-6,"MEAN_MOTION_DDOT":0},{"OBJECT_NAME":"LUCH 5A (SDCM/PRN 140)","OBJECT_ID":"2011-074B","EPOCH":"2026-04-04T17:00:11.965248","MEAN_MOTION":1.00271287,"ECCENTRICITY":0.00031678,"INCLINATION":8.568,"RA_OF_ASC_NODE":74.8738,"ARG_OF_PERICENTER":285.2994,"MEAN_ANOMALY":254.8211,"EPHEMERIS_TYPE":0,"CLASSIFICATION_TYPE":"U","NORAD_CAT_ID":37951,"ELEMENT_SET_NO":999,"REV_AT_EPOCH":5231,"BSTAR":0,"MEAN_MOTION_DOT":-4.6e-7,"MEAN_MOTION_DDOT":0}]
